STARLINK-3703           
1 52101U 22029P   26193.83335647  .00002287  00000+0  13170-3 0  9997
2 52101  53.1593 247.0918 0001757  86.8594 184.4003 15.16509629  5580
STARLINK-3709           
1 52102U 22029Q   26193.83335647 -.00013064  00000+0 -38653-3 0  9998
2 52102  53.1584 235.1404 0001119  94.6604  51.1418 15.33551390  5839
STARLINK-3705           
1 52103U 22029R   26193.83335647 -.00021200  00000+0 -59883-3 0  9998
2 52103  53.1719 235.0917 0000874  59.8127 256.3853 15.35386671  5830
STARLINK-3706           
1 52105U 22029T   26193.83335647  .00057797  00000+0  17836-2 0  9999
2 52105  53.1610 235.1908 0000410 106.6632 194.5513 15.33037616  5736
STARLINK-3670           
1 52106U 22029U   26193.62773144  .00001317  00000+0  50106-4 0  9991
2 52106  53.1594 244.3054 0001028  79.6244 280.4875 15.34394250239552
STARLINK-3658           
1 52107U 22029V   26193.83335647  .00056609  00000+0  18703-2 0  9996
2 52107  53.1608 235.3189 0000964 122.3302 138.2817 15.30861883  5832
STARLINK-3698           
1 52108U 22029W   26193.83335647 -.00014376  00000+0 -42658-3 0  9991
2 52108  53.1597 235.0408 0001195  74.2404 288.9773 15.33550888  5585
STARLINK-3687           
1 52110U 22029Y   26193.83335647 -.00009312  00000+0 -27226-3 0  9992
2 52110  53.1601 235.1157 0001079  79.8618 264.4640 15.33535854  5831
STARLINK-3708           
1 52111U 22029Z   26193.83335647  .01220435  00000+0  33415-1 0  9998
2 52111  53.1589 235.1583 0001587  66.3961 335.7343 15.34173469  5682
STARLINK-3734           
1 52112U 22029AA  26193.83335647 -.00302579  00000+0 -28756-2 0  9993
2 52112  53.2169 215.3878 0000866  78.8403  68.1426 15.67121401  5856
STARLINK-3736           
1 52113U 22029AB  26193.83335647 -.00012842  00000+0 -37975-3 0  9999
2 52113  53.1603 234.6546 0001431  81.4700 260.6125 15.33551765  5638
STARLINK-3737           
1 52114U 22029AC  26193.83335647 -.00009074  00000+0 -26503-3 0  9998
2 52114  53.1582 234.9398 0000828  66.3285  67.7938 15.33536629  5733
STARLINK-3685           
1 52115U 22029AD  26193.50825838  .00102151  00000+0  28800-2 0  9998
2 52115  53.1580 234.8149 0002164  49.3293 310.7898 15.35613667239689
STARLINK-3735           
1 52116U 22029AE  26193.83335647 -.00016422  00000+0 -48887-3 0  9994
2 52116  53.1597 234.8197 0001256  75.7771 159.9164 15.33562235  5633
STARLINK-3738           
1 52117U 22029AF  26193.83335647 -.00013464  00000+0 -39869-3 0  9998
2 52117  53.1602 234.9587 0001215  80.6762 185.0738 15.33556119  5681
STARLINK-3743           
1 52118U 22029AG  26193.83335647 -.00006989  00000+0 -19602-3 0  9996
2 52118  53.1593 235.0453 0000880  86.7811  71.9355 15.34384190  5580
STARLINK-3558           
1 52119U 22029AH  26193.51352900  .00001708  00000+0  59837-4 0  9990
2 52119  53.1597 235.0066 0001013  58.7940 301.3162 15.35406485239685
STARLINK-3534           
1 52120U 22029AJ  26193.62553922 -.00000380  00000+0 -10087-6 0  9994
2 52120  53.1581 234.1637 0001435  59.1275 300.9869 15.34388003239715
STARLINK-3678           
1 52121U 22029AK  26193.56342242  .00000144  00000+0  27127-4 0  9996
2 52121  53.1575 228.2900 0001180  86.2775 273.8351 15.08834582239778
STARLINK-3726           
1 52122U 22029AL  26193.83335647  .00057782  00000+0  18065-2 0  9997
2 52122  53.1597 235.1680 0001981  87.3654  91.9327 15.32622660  5730
STARLINK-3725           
1 52123U 22029AM  26193.53860410  .00000645  00000+0  58623-4 0  9998
2 52123  53.1584 228.2236 0001061  80.5280 279.5831 15.08828976239785
STARLINK-3727           
1 52125U 22029AP  26193.41991070 -.00000930  00000+0 -40328-4 0  9996
2 52125  53.1594 228.9350 0001039  74.8446 285.2661 15.08834652239768
STARLINK-3732           
1 52126U 22029AQ  26192.10246679 -.00000291  00000+0 -22471-6 0  9991
2 52126  53.1580 234.8581 0001160  84.7855 275.3268 15.08828330239551
STARLINK-3715           
1 52127U 22029AR  26193.41622801  .00000250  00000+0  33788-4 0  9996
2 52127  53.1588 228.9530 0000762  79.6921 280.4157 15.08839974239754
STARLINK-3661           
1 52129U 22029AT  26193.47510498 -.00000763  00000+0 -29853-4 0  9991
2 52129  53.1593 228.6866 0001241  69.7512 290.3613 15.08832986239775
STARLINK-3711           
1 52131U 22029AV  26193.56660344  .00017000  00000+0  79956-3 0  9998
2 52131  53.2136 219.7557 0001200 335.7982  24.2958 15.19692173239918
STARLINK-3718           
1 52132U 22029AW  26193.47880240  .00001268  00000+0  97814-4 0  9991
2 52132  53.1579 228.6697 0001122  93.2667 266.8453 15.08820540239779
STARLINK-3707           
1 52133U 22029AX  26193.06662669 -.00000845  00000+0 -35031-4 0  9995
2 52133  53.1594 230.5201 0000895 103.9207 256.1884 15.08826942239711
STARLINK-3721           
1 52134U 22029AY  26193.53398738 -.00000013  00000+0  17266-4 0  9997
2 52134  53.1584 228.4240 0001198  77.2626 282.8499 15.08836684239784
STARLINK-3720           
1 52136U 22029BA  26193.12917678 -.00000298  00000+0 -60433-6 0  9996
2 52136  53.1587 230.2410 0001187  81.4099 278.7027 15.08833416239723
