OBJECT_NAME,OBJECT_ID,EPOCH,MEAN_MOTION,ECCENTRICITY,INCLINATION,RA_OF_ASC_NODE,ARG_OF_PERICENTER,MEAN_ANOMALY,EPHEMERIS_TYPE,CLASSIFICATION_TYPE,NORAD_CAT_ID,ELEMENT_SET_NO,REV_AT_EPOCH,BSTAR,MEAN_MOTION_DOT,MEAN_MOTION_DDOT
STARLINK-3703,2022-029P,2026-07-12T20:00:01.999008,15.16509629,.0001757,53.1593,247.0918,86.8594,184.4003,0,U,52101,999,558,.1317E-3,.2287E-4,0
STARLINK-3709,2022-029Q,2026-07-12T20:00:01.999008,15.33551390,.0001119,53.1584,235.1404,94.6604,51.1418,0,U,52102,999,583,-.38653E-3,-.13064E-3,0
STARLINK-3705,2022-029R,2026-07-12T20:00:01.999008,15.35386671,.0000874,53.1719,235.0917,59.8127,256.3853,0,U,52103,999,583,-.59883E-3,-.212E-3,0
STARLINK-3706,2022-029T,2026-07-12T20:00:01.999008,15.33037616,.000041,53.1610,235.1908,106.6632,194.5513,0,U,52105,999,573,.17836E-2,.57797E-3,0
STARLINK-3670,2022-029U,2026-07-12T15:03:55.996416,15.34394250,.0001028,53.1594,244.3054,79.6244,280.4875,0,U,52106,999,23955,.50106E-4,.1317E-4,0
STARLINK-3658,2022-029V,2026-07-12T20:00:01.999008,15.30861883,.0000964,53.1608,235.3189,122.3302,138.2817,0,U,52107,999,583,.18703E-2,.56609E-3,0
STARLINK-3698,2022-029W,2026-07-12T20:00:01.999008,15.33550888,.0001195,53.1597,235.0408,74.2404,288.9773,0,U,52108,999,558,-.42658E-3,-.14376E-3,0
STARLINK-3687,2022-029Y,2026-07-12T20:00:01.999008,15.33535854,.0001079,53.1601,235.1157,79.8618,264.4640,0,U,52110,999,583,-.27226E-3,-.9312E-4,0
STARLINK-3708,2022-029Z,2026-07-12T20:00:01.999008,15.34173469,.0001587,53.1589,235.1583,66.3961,335.7343,0,U,52111,999,568,.33415E-1,.1220435E-1,0
STARLINK-3734,2022-029AA,2026-07-12T20:00:01.999008,15.67121401,.0000866,53.2169,215.3878,78.8403,68.1426,0,U,52112,999,585,-.28756E-2,-.302579E-2,0
STARLINK-3736,2022-029AB,2026-07-12T20:00:01.999008,15.33551765,.0001431,53.1603,234.6546,81.4700,260.6125,0,U,52113,999,563,-.37975E-3,-.12842E-3,0
STARLINK-3737,2022-029AC,2026-07-12T20:00:01.999008,15.33536629,.0000828,53.1582,234.9398,66.3285,67.7938,0,U,52114,999,573,-.26503E-3,-.9074E-4,0
STARLINK-3685,2022-029AD,2026-07-12T12:11:53.524032,15.35613667,.00021648,53.1580,234.8149,49.3293,310.7898,0,U,52115,999,23968,.28800328E-2,.102151E-2,0
STARLINK-3735,2022-029AE,2026-07-12T20:00:01.999008,15.33562235,.0001256,53.1597,234.8197,75.7771,159.9164,0,U,52116,999,563,-.48887E-3,-.16422E-3,0
STARLINK-3738,2022-029AF,2026-07-12T20:00:01.999008,15.33556119,.0001215,53.1602,234.9587,80.6762,185.0738,0,U,52117,999,568,-.39869E-3,-.13464E-3,0
STARLINK-3743,2022-029AG,2026-07-12T20:00:01.999008,15.34384190,.000088,53.1593,235.0453,86.7811,71.9355,0,U,52118,999,558,-.19602E-3,-.6989E-4,0
STARLINK-3558,2022-029AH,2026-07-12T12:19:28.905600,15.35406485,.00010137,53.1597,235.0066,58.7940,301.3162,0,U,52119,999,23968,.59837155E-4,.1708E-4,0
STARLINK-3534,2022-029AJ,2026-07-12T15:00:46.588608,15.34388003,.0001435,53.1581,234.1637,59.1275,300.9869,0,U,52120,999,23971,-.10087E-6,-.38E-5,0
STARLINK-3678,2022-029AK,2026-07-12T13:31:19.697088,15.08834582,.000118,53.1575,228.2900,86.2775,273.8351,0,U,52121,999,23977,.27127E-4,.144E-5,0
STARLINK-3726,2022-029AL,2026-07-12T20:00:01.999008,15.32622660,.0001981,53.1597,235.1680,87.3654,91.9327,0,U,52122,999,573,.18065E-2,.57782E-3,0
STARLINK-3725,2022-029AM,2026-07-12T12:55:35.394240,15.08828976,.0001061,53.1584,228.2236,80.5280,279.5831,0,U,52123,999,23978,.58623E-4,.645E-5,0
STARLINK-3727,2022-029AP,2026-07-12T10:04:40.284480,15.08834652,.0001039,53.1594,228.9350,74.8446,285.2661,0,U,52125,999,23976,-.40328149E-4,-.93E-5,0
STARLINK-3732,2022-029AQ,2026-07-11T02:27:33.130656,15.08828330,.000116,53.1580,234.8581,84.7855,275.3268,0,U,52126,999,23955,-.224707E-6,-.291E-5,0
STARLINK-3715,2022-029AR,2026-07-12T09:59:22.100064,15.08839974,.00007627,53.1588,228.9530,79.6921,280.4157,0,U,52127,999,23975,.33788151E-4,.25E-5,0
STARLINK-3661,2022-029AT,2026-07-12T11:24:09.070272,15.08832986,.00012419,53.1593,228.6866,69.7512,290.3613,0,U,52129,999,23977,-.29852606E-4,-.763E-5,0
STARLINK-3711,2022-029AV,2026-07-12T13:35:54.537216,15.19692173,.00012,53.2136,219.7557,335.7982,24.2958,0,U,52131,999,23991,.79956E-3,.17E-3,0
STARLINK-3718,2022-029AW,2026-07-12T11:29:28.527360,15.08820540,.00011224,53.1579,228.6697,93.2667,266.8453,0,U,52132,999,23977,.97813565E-4,.1268E-4,0
STARLINK-3707,2022-029AX,2026-07-12T01:35:56.546016,15.08826942,.0000895,53.1594,230.5201,103.9207,256.1884,0,U,52133,999,23971,-.35031403E-4,-.845E-5,0
STARLINK-3721,2022-029AY,2026-07-12T12:48:56.509632,15.08836684,.0001198,53.1584,228.4240,77.2626,282.8499,0,U,52134,999,23978,.17266E-4,-.13E-6,0
STARLINK-3720,2022-029BA,2026-07-12T03:06:00.873792,15.08833416,.00011871,53.1587,230.2410,81.4099,278.7027,0,U,52136,999,23972,-.604326E-6,-.298E-5,0
